[{"OBJECT_NAME":"IRIS","OBJECT_ID":"2013-033A","EPOCH":"2026-03-09T13:26:21.239520","MEAN_MOTION":14.85645982,"ECCENTRICITY":0.00232612,"INCLINATION":97.9395,"RA_OF_ASC_NODE":268.1167,"ARG_OF_PERICENTER":285.8728,"MEAN_ANOMALY":73.9923,"EPHEMERIS_TYPE":0,"CLASSIFICATION_TYPE":"U","NORAD_CAT_ID":39197,"ELEMENT_SET_NO":999,"REV_AT_EPOCH":68558,"BSTAR":0.00024024039,"MEAN_MOTION_DOT":2.035e-5,"MEAN_MOTION_DDOT":0},{"OBJECT_NAME":"FFLY03","OBJECT_ID":"2025-188E","EPOCH":"2026-03-09T23:48:31.208832","MEAN_MOTION":14.92857001,"ECCENTRICITY":0.00085476,"INCLINATION":97.7385,"RA_OF_ASC_NODE":145.8163,"ARG_OF_PERICENTER":76.1578,"MEAN_ANOMALY":284.0592,"EPHEMERIS_TYPE":0,"CLASSIFICATION_TYPE":"U","NORAD_CAT_ID":65319,"ELEMENT_SET_NO":999,"REV_AT_EPOCH":2911,"BSTAR":0.00017967425,"MEAN_MOTION_DOT":1.806e-5,"MEAN_MOTION_DDOT":0}]
